[{"ORDINAL":"1","COMMENT":"GENERATED VIA SPACETRACK.ORG API","ORIGINATOR":"JSPOC","NORAD_CAT_ID":"39581","OBJECT_NAME":"H-2A DEB","OBJECT_TYPE":"DEBRIS","CLASSIFICATION_TYPE":"U","INTLDES":"14009K","EPOCH":"2014-03-10 07:55:45","EPOCH_MICROSECONDS":"819552","MEAN_MOTION":"16.24908724","ECCENTRICITY":"0.0013889","INCLINATION":"64.9859","RA_OF_ASC_NODE":"22.6512","ARG_OF_PERICENTER":"195.4226","MEAN_ANOMALY":"163.8225","EPHEMERIS_TYPE":"0","ELEMENT_SET_NO":"8","REV_AT_EPOCH":"157","BSTAR":"0.0056971","MEAN_MOTION_DOT":"0.16770963","MEAN_MOTION_DDOT":"7.142e-06","FILE":"1646912","TLE_LINE0":"0 H-2A DEB","TLE_LINE1":"1 39581U 14009K   14069.33039143  .16770963  71420-5  56971-2 0    85","TLE_LINE2":"2 39581 064.9859 022.6512 0013889 195.4226 163.8225 16.24908724  1578","OBJECT_ID":"2014-009K","OBJECT_NUMBER":"39581"},{"ORDINAL":"2","COMMENT":"GENERATED VIA SPACETRACK.ORG API","ORIGINATOR":"JSPOC","NORAD_CAT_ID":"39581","OBJECT_NAME":"H-2A DEB","OBJECT_TYPE":"DEBRIS","CLASSIFICATION_TYPE":"U","INTLDES":"14009K","EPOCH":"2014-03-09 09:35:22","EPOCH_MICROSECONDS":"384032","MEAN_MOTION":"16.02282948","ECCENTRICITY":"0.0019282","INCLINATION":"64.9859","RA_OF_ASC_NODE":"26.0761","ARG_OF_PERICENTER":"184.0977","MEAN_ANOMALY":"175.5959","EPHEMERIS_TYPE":"0","ELEMENT_SET_NO":"7","REV_AT_EPOCH":"142","BSTAR":"0.011685","MEAN_MOTION_DOT":"0.05239499","MEAN_MOTION_DDOT":"0.053787","FILE":"1645746","TLE_LINE0":"0 H-2A DEB","TLE_LINE1":"1 39581U 14009K   14068.39956463  .05239499  53787-1  11685-1 0    78","TLE_LINE2":"2 39581 064.9859 026.0761 0019282 184.0977 175.5959 16.02282948  1429","OBJECT_ID":"2014-009K","OBJECT_NUMBER":"39581"},{"ORDINAL":"3","COMMENT":"GENERATED VIA SPACETRACK.ORG API","ORIGINATOR":"JSPOC","NORAD_CAT_ID":"39581","OBJECT_NAME":"H-2A DEB","OBJECT_TYPE":"DEBRIS","CLASSIFICATION_TYPE":"U","INTLDES":"14009K","EPOCH":"2014-03-08 11:02:40","EPOCH_MICROSECONDS":"876512","MEAN_MOTION":"15.92735637","ECCENTRICITY":"0.0015422","INCLINATION":"64.9873","RA_OF_ASC_NODE":"29.4753","ARG_OF_PERICENTER":"182.8971","MEAN_ANOMALY":"176.6712","EPHEMERIS_TYPE":"0","ELEMENT_SET_NO":"6","REV_AT_EPOCH":"127","BSTAR":"0.01129","MEAN_MOTION_DOT":"0.0336405","MEAN_MOTION_DDOT":"0.012655","FILE":"1645148","TLE_LINE0":"0 H-2A DEB","TLE_LINE1":"1 39581U 14009K   14067.46019533  .03364050  12655-1  11290-1 0    63","TLE_LINE2":"2 39581 064.9873 029.4753 0015422 182.8971 176.6712 15.92735637  1273","OBJECT_ID":"2014-009K","OBJECT_NUMBER":"39581"},{"ORDINAL":"4","COMMENT":"GENERATED VIA SPACETRACK.ORG API","ORIGINATOR":"JSPOC","NORAD_CAT_ID":"39581","OBJECT_NAME":"H-2A DEB","OBJECT_TYPE":"DEBRIS","CLASSIFICATION_TYPE":"U","INTLDES":"14009K","EPOCH":"2014-03-06 07:35:41","EPOCH_MICROSECONDS":"255807","MEAN_MOTION":"15.8054094","ECCENTRICITY":"0.0016344","INCLINATION":"64.9949","RA_OF_ASC_NODE":"37.1043","ARG_OF_PERICENTER":"173.6983","MEAN_ANOMALY":"186.7154","EPHEMERIS_TYPE":"0","ELEMENT_SET_NO":"5","REV_AT_EPOCH":"93","BSTAR":"0.011248","MEAN_MOTION_DOT":"0.0252044","MEAN_MOTION_DDOT":"0","FILE":"1643850","TLE_LINE0":"0 H-2A DEB","TLE_LINE1":"1 39581U 14009K   14065.31644972  .02520440  00000-0  11248-1 0    54","TLE_LINE2":"2 39581 064.9949 037.1043 0016344 173.6983 186.7154 15.80540940   932","OBJECT_ID":"2014-009K","OBJECT_NUMBER":"39581"},{"ORDINAL":"5","COMMENT":"GENERATED VIA SPACETRACK.ORG API","ORIGINATOR":"JSPOC","NORAD_CAT_ID":"39581","OBJECT_NAME":"H-2A DEB","OBJECT_TYPE":"DEBRIS","CLASSIFICATION_TYPE":"U","INTLDES":"14009K","EPOCH":"2014-03-04 06:52:41","EPOCH_MICROSECONDS":"47680","MEAN_MOTION":"15.73119396","ECCENTRICITY":"0.0012732","INCLINATION":"64.9959","RA_OF_ASC_NODE":"44.2352","ARG_OF_PERICENTER":"175.7636","MEAN_ANOMALY":"184.4269","EPHEMERIS_TYPE":"0","ELEMENT_SET_NO":"4","REV_AT_EPOCH":"61","BSTAR":"0.011079","MEAN_MOTION_DOT":"0.01741143","MEAN_MOTION_DDOT":"0","FILE":"1643651","TLE_LINE0":"0 H-2A DEB","TLE_LINE1":"1 39581U 14009K   14063.28658620  .01741143  00000-0  11079-1 0    48","TLE_LINE2":"2 39581 064.9959 044.2352 0012732 175.7636 184.4269 15.73119396   616","OBJECT_ID":"2014-009K","OBJECT_NUMBER":"39581"},{"ORDINAL":"2","COMMENT":"GENERATED VIA SPACETRACK.ORG API","ORIGINATOR":"JSPOC","NORAD_CAT_ID":"24868","OBJECT_NAME":"PEGASUS DEB","OBJECT_TYPE":"DEBRIS","CLASSIFICATION_TYPE":"U","INTLDES":"56001AAA","EPOCH":"1997-07-08 23:34:17","EPOCH_MICROSECONDS":"543135","MEAN_MOTION":"8.7622591","ECCENTRICITY":"0.2074569","INCLINATION":"86.0425","RA_OF_ASC_NODE":"34.3702","ARG_OF_PERICENTER":"87.3595","MEAN_ANOMALY":"296.1389","EPHEMERIS_TYPE":"0","ELEMENT_SET_NO":"3","REV_AT_EPOCH":"506","BSTAR":"0","MEAN_MOTION_DOT":"1.3e-07","MEAN_MOTION_DDOT":"0","FILE":"35237","TLE_LINE0":"0 PEGASUS DEB","TLE_LINE1":"1 24868U 56001AAA 97189.98214749 +.00000013 +00000-0 +00000-0 0 00038","TLE_LINE2":"2 24868 086.0425 034.3702 2074569 087.3595 296.1389 08.76225910005063","OBJECT_ID":"2056-001AAA","OBJECT_NUMBER":"24868"}]